placeName;getty;gnd;long;lat;comment
Aabenraa;7003423;; 9.4333;55.0500;
Aachen;;4000003-5;+006.083333;+050.776388;
Aarau;7007266;;8.0667;47.4;
Aarhus;7003442;;10.2167;56.1667;
Abano Terme;;4359172-3;+011.791410;+045.360990;
Abbeville;;4383593-4;+001.833329;+050.100000;
Abensberg;;4084641-6;+011.849722;+048.816666;
Aberdeen;;4079606-1;-002.098139;+057.143689;
Agen;;4079641-3;+000.633330;+044.200000;
Aix-en-Provence;7010786;;5.45;43.5167;
Alcalá de Henares;7007139;;-3.3667;40.4667;
Alexandria;;4001138-0;+029.955269;+031.215640;
Alfdorf;;4301693-5;+009.718569;+048.843850;
Alkmaar;7007057;4243503-1;4.7333;52.6333;
Allendorf (Landkreis Saalfeld-Rudolstadt);;7583699-3;+011.158055;+050.654722;
Alsfeld;;4001366-2;+009.270820;+050.751849;
Altdorf;1038166;4001388-1;11.3667;49.3833;
Altena (Westf.);;4001401-0;+007.673359;+051.294719;
Altenburg;7012790;;12.45;50.9833;
Altenburg (Thüringen);7012790;4001409-5;12.45;50.9833;
Altenhof;7059988;;10.8833;50.2500;
Altmühlmünster;7024685;;11.6167;48.9833;
Altona;7012310;;9.9333;53.55;
Amberg;7063202;4001632-8;10.6833;48.0667;
Amiens;;4085690-2;+002.299999;+049.899999;
Amsterdam;7006952;4001783-7;4.9;52.35;
Andernach;;4001919-6;+007.404166;+050.430833;
Angers;7008480;4002024-1;-.5333;47.4833;
Annaberg (Erzgebirge);;4002113-0;+013.005000;+050.578611;
Annaberg-Buchholz;7012791;;13;50.5667;
Ansbach;7004459;4002170-1;10.55;49.3;
Antwerpen;7007856;4002364-3;4.4167;51.2167;
Arezzo;;4002888-4;+011.876910;+043.461390;
Arles;7008775;;4.6333;43.6833;
Armsfeld;;4638262-8;+009.064080;+051.052599;
Arnheim;7006876;4002980-3;5.8833;52;
Arnsberg;7004440;;8.05;51.3833;
Arnstadt;7012792;4003011-8;10.95;50.8333;
Arpino;;4427172-4;+013.608810;+041.647419;
Arras;;4085976-9;+002.781860;+050.293010;
Aschaffenburg;7004322;;9.15;49.9833;
Aschersleben;1036362;4086015-2;11.4667;51.75;
Aschersleben-Mehringen;;7727905-0;+011.512639;+051.726630;
Athen;;4003366-1;+023.716219;+037.979449;
Attendorn;;4003450-1;+007.903330;+051.126449;
Augsburg;7004324;4003614-5;10.9;48.35;
Aurich;;4003660-1;+007.482319;+053.469189;
Aurich;1038265;;7.4833;53.4667;
Aurillac;;4079875-6;+002.450000;+044.916670;
Auvers-sur-Oise;7008030;;2.1667;49.0833;
Avignon;7008799;4004019-7;4.8;43.9333;
Bacharach;7005110;;7.7667;50.0667;
Bad Bentheim;7012362;;7.1667;52.3167;
Bad Bergzabern;;4087278-6;+008.200000;+049.102449;
Bad Hersfeld;7012967;4024607-3;9.7167;50.8833;
Bad Kreuznach;7012371;;7.8667;49.85;
Bad Königshofen i. Grabfeld;;4098660-3;+010.468611;+050.300555;
Bad Langensalza;;4034508-7;+010.645833;+051.107500;
Bad Liebenwerda;;4099622-0;+013.394590;+051.518259;
Bad Sassendorf;1038376;;8.15;51.5833;
Bad Staffelstein;;4056831-3;+011.001279;+050.101990;
Bad Wimpfen;;4066247-0;+009.156480;+049.229709;
Bad Windsheim;7012382;;10.45;49.5;
Baden (Aargau);7007314;;8.3167;47.4667;
Bamberg;7004325;4004391-5;10.9;49.9;
Bardejov;;4004566-3;+021.272710;+049.291750;
Barenton;;4337968-0;-000.832580;+048.600270;
Bartfeld;7011355;;21.25;49.3;
Barth;1036417;;12.7333;54.3833;
Basel;7007269;4004617-5;7.6;47.55;
Bassiano;;4827634-0;+013.031890;+041.550420;
Battenberg (Eder);;4086894-1;+008.646029;+051.013910;
Bautzen;7012305;4004968-1;14.4833;51.1833;
Bayreuth;;4005056-7;+011.578888;+049.947777;
Bayreuth;7004326;;11.5833;49.45;
Beauvais;;4086997-0;+002.083330;+049.433329;
Bergamo;7005025;4005611-9;9.6667;45.7;
Berlin;7003712;4005728-8;13.4167;52.5333;
Bern;7007556;4005762-8;16.4833;50.25;
Bernburg;1036449;4005774-4;+011.740100;+051.794640;
Besançon;7008356;;6.0333;47.2333;
Beuthen;7007626;;18.9667;50.35;
Bevern;1038508;;9.5;51.8667;
Beyerberg;;4739999-5;+010.505280;+049.112639;
Białogard;1048920;;16;54;
Biberach an der Riß;;4006424-4;+009.783333;+048.100000;
Biel;;;;;
Bielefeld;7005978;4006510-8;8.5333;52.0333;
Bietigheim;1038522;;8.25;48.9167;
Bietigheim-Bissingen;7012397;4006554-6;+009.117549;+048.944070;
Blaenau Ffestiniog;1064586;;-3.9333;52.9833;
Blankenburg;7012401;4007014-1;10.9667;51.8;
Blankenburg-Michaelstein;;4364611-6;+010.912639;+051.806489;
Bodenwerder;;4080445-8;+009.519310;+051.971559;
Bologna;7003127;4007616-7;11.4333;44.4667;
Bonn;7005090;;7.1;50.7333;
Bonnefoi;7660618;;0.5643;48.6680;
Boppard;;4007708-1;+007.589920;+050.230849;
Bordeaux;;4088072-2;-000.580500;+044.840440;
Bourg-en-Bresse;;4246164-9;+005.225799;+046.205739;
Bozen;;4007901-6;+011.339722;+046.490555;
Brandenburg;7004462;;12.5667;52.4167;
Bratislava;7006465;;17.1667;48.1667;
Braunsberg;7007598;2049941-3;19.8333;54.4;
Braunschweig;7004434;4008065-1;10.5;52.25;
Breda;7006827;4234258-2;4.7667;51.5833;
Bregenz;7003116;;9.7667;47.5167;
Breisach am Rhein;7005968;4008109-6;+007.582939;+048.032789;
Bremen;;4008135-7;+008.833330;+053.083329;
Bremen;7005286;;8.8;53.0833;
Bremervörde;1038649;;9.15;53.4833;
Brescello;;4511776-7;+010.512290;+044.896569;
Brescia;;4008213-1;+010.227270;+045.524779;
Breslau;7007601;4008216-7;17;51.1;
Bretten;;4008223-4;+008.707449;+049.036850;
Brieg;;4008252-0;+017.467400;+050.860790;
Brindisi;;4080536-0;+017.936820;+040.627729;
Bristol;7011198;;-2.5833;51.45;
Brixen;7005433;;11.6667;46.7167;
Bruchsal;;4008388-3;+008.598039;+049.124259;
Brugg;8705042;;7.2760;47.1234;
Brugk;7011825;;16.0667;48.8667;
Brzeg;7007623;;17.4667;50.35;
Brzeziny;;5299579-3;19.75144;51.80023;
Brügge;;4069688-1;+003.224240;+051.208919;
Brünn;7011840;;16.6667;49.2167;
Brüssel;7007868;4008460-7;4.3333;50.8333;
Bunzlau;;4088643-8;+015.569699;+051.264180;
Burghausen;;4009130-2;+012.831388;+048.169166;
Burgos;;4080584-0;-003.700000;+042.350000;
Butzbach;;4009241-0;+008.671219;+050.433950;
Byczyna;1048958;;18.1667;51.1167;
Böblingen;;4007430-4;+009.029550;+048.684950;
Böhmisch-Leipa;;4315195-4;+014.537639;+050.685510;
Bückeburg;;4008715-3;+009.049390;+052.260649;
Büdingen;1038289;;9.1167;50.2833;
Büren;;4411255-5;7.97659;52.30596;
Bützow;;4227578-7;+011.982559;+053.848320;
Caen;7008209;4009282-3;-.3667;49.1833;
Caesarea Maritima;;4088936-1;+034.904589;+032.518880;
Cambrai;7008456;;3.2333;50.1667;
Cambridge;7010874;;.1167;52.2;
Cambridge;7013527;;-71.1;42.3667;
Canterbury;7012044;;1.0833;51.2833;
Capestrano;;4689361-1;+013.765800;+042.268439;
Cardiff;7008742;;-3.2167;51.5;
Cartagena;;4197667-8;-000.986230;+037.605119;
Casale Monferrato;7003924;;8.45;45.1333;
Castelo Branco;;4433734-6;-007.490870;+039.822189;
Celle;7005317;4009657-9;10.0833;52.6167;
Certaldo;;4085198-9;+011.040219;+043.547040;
Cesena;7004922;4085200-3;12.25;44.15;
Chassala;7004431;;9.5;51.3;
Chelmsford;7011848;;.4667;51.7333;
Chemnitz;7005951;4029702-0;12.9167;50.8333;
Chester;;4085244-1;-002.891890;+053.190500;
Chur;7007276;;9.5333;46.8667;
City of London;7011798;;-.0833;51.5167;
Clausthal;7205024;;10.3333;51.8;
Clausthal-Zellerfeld;7005931;;10.3333;51.8;
Coburg;7004330;4010325-0;10.9667;50.25;
Colditz;7012802;;12.8167;51.1333;
Colmar;7008119;4010401-1;7.35;48.0833;
Como;7005851;4085313-5;9.0833;45.8;
Conwy;7008539;;-3.8333;53.2833;
Covarrubias;;4334649-2;-003.519559;+042.059260;
Cremona;;4010700-0;+010.027969;+045.136169;
Cronheim;;4585222-4;+010.663899;+049.095379;
Crossen;1036562;;12.4833;50.7667;
Córdoba;;4010558-1;-004.767222;+037.891666;
Dahme;1036579;;13.4333;51.8667;
Dannenberg (Elbe);;4011027-8;+011.090000;+053.096666;
Danzig;7007660;4011039-4;18.6833;54.3667;
Darmstadt;7004428;;8.65;49.8667;
Daun;;4011195-7;+006.829419;+050.197159;
Deggendorf;;4011295-0;+012.960680;+048.840859;
Delft;7006804;4011369-3;4.35;52.0167;
Delitzsch;;4011376-0;+012.342840;+051.525460;
Demmin;;4090674-7;+013.031420;+053.907620;
Den Haag;7006810;4011446-6;4.2667;52.0833;
Dersingham;7010781;;.5;52.85;
Dessau;7012804;;12.25;51.85;
Detmold;;4011555-0;+008.873055;+051.938333;
Deventer;7006940;4090740-5;6.1667;52.25;
Diessenhofen;;4090794-6;+008.749444;+047.689166;
Dieuze;;5247571-2;6.7178;48.81263;
Dijon;;4012315-7;+005.016670;+047.316670;
Dillingen;7012427;;10.5;48.55;
Dillingen an der Donau;7012427;4012328-5;10.5;48.55;
Dinkelsbühl;7012428;;10.35;49.0667;
Dippoldiswalde;;4223824-9;+013.669050;+050.896210;
Doberlug;;4231033-7;+013.550000;+051.600000;
Donauwörth;;4012721-7;+010.779299;+048.718040;
Dordrecht;7006798;;4.6667;51.8;
Dorfchemnitz;;4830886-9;+013.450000;+050.766666;
Dornburg;7194885;; 11.6667; 51.0167;
Dorpat;7006624;;26745;58366;
Dortmund;7004982;;7.45;51.5167;
Dresden;7004455;4012995-0;13.75;51.05;
Droyßig;;7728603-0;+012.033329;+051.049999;
Dublin;7001306;4013170-1;-6.25;53.3333;
Dubrovnik;;4013176-2;+018.092159;+042.648069;
Duderstadt;7005933;;10.25;51.5333;
Duffel;;4307647-6;+004.509030;+051.095539;
Duisburg;7004923;;6.75;51.4333;
Durlach;7013206;;8.4833;49;
Dyhernfurt;;4494802-5;+016.708149;+051.272990;
Döbeln;;4012586-5;+013.110269;+051.122100;
Düsseldorf;7004443;;6.7833;51.2167;
Ebeleben-Thüringenhausen;;1064644740;+010.800000;+051.266666;
Edderitz;;1148989722;+011.936944;+051.699166;
Ederheim-Christgarten;;4010077-7;+010.463820;+048.783439;
Edinburgh;7009546;4013557-3;-3.2167;55.95;
Eger;;4013597-4;+012.373920;+050.079630;
Ehingen (Donau);;4085537-5;+009.727500;+048.282500;
Ehrenbreitstein;7197734;;;;
Eichstätt;7004613;;11.2167;48.9;
Eilenburg;1036644;;12.6333;51.4667;
Einbeck;7005635;;9.8833;51.8167;
Einsiedeln;7007350;;8.75;47.1167;
Eisenach;7005969;4014013-1;10.3167;50.9833;
Eisenberg;1036648;;11.9;50.9667;
Eisleben;;4092450-6;+011.548333;+051.527500;
Eisleben;7012806;;11.55;51.5333;
Elberfeld;7004943;;7.1833;51.2667;
Elbing;7007656;;19.4167;54.1667;
Ellrich;1036656;4396139-3;10.6833;51.5833;
Ellwangen;7012440;;10.1167;48.95;
Elsass;7024265;;7.5;48.1667;
Emden;7005300;4014564-5;7.2167;53.3833;
Emmerich;7005163;4014593-1;+006.247919;+051.839329;
Engelthal;7187248;;;;
Enkhuizen;7007064;;5.2833;52.7;
Enkhuizen;7007064;;5.2833;52.7;
Erfurt;7024031;4015240-6;11.05;50.9667;
Erfurt-Ermstedt;;7623039-9;+010.883279;+050.967440;
Erlangen;7004332;4015299-6;11.0333;49.6;
Eschwege;7005950;;10.05;51.1833;
Essen;7004905;;6.95;51.45;
Esslingen;7012928;4015575-4;+009.304722;+048.739444;
Ettlingen;;4015636-9;+008.407629;+048.940939;
Exeter;7011953;;-3.5167;50.7167;
Faenza;;4091999-7;+011.883340;+044.285699;
Feldkirch;7003119;;9.6333;47.25;
Felsberg;;4092124-4;+009.421388;+051.137500;
Ferrara;7004264;;11.6333;44.8333;
Fiesole;7006141;;11.2833;43.8;
Figline Valdarno;;4392330-6;+011.469329;+043.619549;
Firenze;7000457;;11.25;43783;
Flensburg;7005971;4017506-6;9.4333;54.7833;
Florenz;;4017581-9;+011.250000;+043.766669;
Forchheim;;4017819-5;+011.058611;+049.717500;
Forlì;;4086516-2;+012.052780;+044.223610;
Framlingham;7010931;;1.35;52.2167;
Franeker;7007016;4237485-6;5.55;53.1833;
Frankenberg/Sa.;;4093143-2;+013.040110;+050.912970;
Frankenstein in Schlesien;;4093148-1;+016.812222;+050.589444;
Frankenthal;7012458;;8.3667;49.5333;
Frankfurt;7003723;;13.75;52.5;
Frankfurt (Oder);7005972;4018122-4;14.5333;52.3333;
Frankfurt am Main;7005293;4018118-2;8.6833;50.1;
Frankfurt/M.;7005293;;8.6833;50.1;
Frankfurt/O.;7005972;;14.5333;52.3333;
Frauenfeld;;4018220-4;+008.898333;+047.558055;
Fraustadt;;4093218-7;+016.316629;+051.807049;
Fregenal de la Sierra;;7532366-7;-006.653699;+038.169220;
Freiberg;;4018266-6;+013.338611;+050.910833;
Freiburg im Breisgau;;4018272-1;+007.852222;+047.995833;
Freiburg, Schweiz;7007278;;7.1667;46.8333;
Freistadt;7003287;;14.5167;48.5167;
Freyberg;;;;;
Freystadt in Schlesien;1049149;4308049-2;+015.594722;+051.745555;
Friedberg (Hessen);7012315;4018510-2;+008.755833;+050.337222;
Friedland (Mecklenburg);1136834;4093298-9;+013.554000;+053.670279;
Friedrichsburg;7182907;;;;
Friedrichswerder;7003712;;13.4167;52.5333;
Fulda;;4018859-0;+009.675179;+050.551619;
Fürstenau (Landkreis Osnabrück);;4093387-8;+007.676666;+052.516666;
Fürth;7013366;;10.9833;49.4667;
Gandersheim;7005633;;10.0333;51.8833;
Gardelegen;1036756;;11.4;52.55;
Geisa;;4092746-5;+009.950749;+050.714649;
Geisenhausen;;;;;
Genf;7007279;4020137-5;6.15;46.2167;
Gent;7007887;4020176-4;3.7;51.0333;
Genua;;4020185-5;+008.933859;+044.406320;
Gera;7012815;4020295-1;12.0833;50.8667;
Gerstungen-Marksuhl;;4717489-4;+010.199999;+050.916670;
Gießen;7004429;4020989-1;8.7;50.5833;
Glatz;7007687;;16.6667;50.4667;
Glaucha;7185867;;;;
Glogau;;4093614-4;+016.084499;+051.663609;
Glückstadt;;4021332-8;+009.425760;+053.788930;
Glückstadt;7012480;;9.4333;53.7833;
Gorinchem;;4238291-9;+004.972430;+051.836520;
Gorsleben;;4742275-0;+011.183329;+051.266669;
Goslar;7005630;4021643-3;10.4167;51.9167;
Gotha;;4021652-4;+010.701666;+050.948055;
Gotha;7005938;;10.7167;50.95;
Gouda;7006805;4104351-0;4.7167;52.0167;
Grafschaft Hanau;;;;;
Grantham;7010741;;-.6333;52.9;
Graslitz;1027299;;12.5167;50.35;
Grave;;4252903-7;+005.738819;+051.759019;
Graz;;4021912-4;+015.450000;+047.066666;
Grebenstein;1039321;;9.4;51.45;
Greenwich;;4093927-3;-000.011760;+051.477849;
Greifenberg;;5194436-4;15.416667;51.033333;
Greifenhagen;;4281190-9;+014.488310;+053.252429;
Greifswald;7004725;4021965-3;13.3833;54.0833;
Greifswald-Eldena;7004726;;13.4333;54.0833;
Greiz;1036834;;12.1833;50.6667;
Grenoble;7008759;;5.7167;45.1833;
Greußen;7176202;4391494-9;+010.944166;+051.229722;
Grimma;;4022085-0;+012.719590;+051.233669;
Groningen;7006984;4094052-4;6.5833;53.2167;
Groß Grönau;7174998;;;;
Groß-Glogau;1137033;;16.1;51.6667;
Großenhain;7175928;4094082-2;+013.533500;+051.289509;
Gröningen;;4333297-3;+011.216111;+051.937500;
Grünberg (Landkreis Gießen);;4022283-4;+008.958611;+050.593888;
Grünberg i. Schlesien;;4094132-2;+015.506388;+051.935277;
Guben;1049078;;14.7167;51.95;
Guhrau;1049033;;16.5333;51.6667;
Gundelfingen a.d. Donau;;4086854-0;+010.372230;+048.553469;
Gunzenhausen;;4022556-2;+010.759710;+049.116630;
Gênes;7008546;;8.95;44.4167;
Göhrde;1039164;;10.9;53.1333;
Göppingen;;4021434-5;+009.654880;+048.702800;
Göritz;;102738143X;+013.915555;+053.406111;
Görlitz;7012813;4021441-2;15;51.15;
Göteborg;7009954;;11.9667;57.7167;
Göttingen;7005246;4021477-1;9.95;51.5333;
Güstrow;7004797;;12.1833;53.8;
Gütersloh;;4132018-9;+008.378539;+051.906930;
Haag;7006810;;4.2667;52.0833;
Haarlem;7007048;4022687-6;4.6333;52.3833;
Hagenau;7008077;4094465-7;7.7833;48.8167;
Haguenau;7008077;4094465-7;7.7833;48.8167;
Haigerloch;;4022962-2;+008.803570;+048.366140;
Halberstadt;7012317;4022987-7;11.0667;51.9;
Halle (Saale);1036898;4023025-9;11.9667;51.4833;
Hallein;7003258;;13.1;47.6833;
Hamburg;7005289;4023118-5;10;53.55;
Hamburg-Altona;7012310;;9.9333;53.55;
Hameln;7005479;;9.3667;52.1167;
Hamm;7005089;;7.8167;51.6667;
Hammelburg;;4023171-9;+009.891429;+050.116320;
Hanau;7005295;4023201-3;8.9333;50.1333;
Handewitt;;4292637-3;+009.333330;+054.766669;
Hann. Münden;;4040595-3;+009.650460;+051.415050;
Hann. Münden;7005936;;9683;51.4167;
Hannover;7013260;4023349-2;9.7333;52.4;
Hardegsen;;4329620-8;+009.830500;+051.652270;
Harderwijk;7006902;;5.6167;52.35;
Harlingen;7007015;;5.4167;53.1667;
Harzburg;7012364;;10.55;51.8833;
Haselünne;;4104376-5;+007.484600;+052.674120;Landkreis Emsland
Hatfield;7011870;;-.2167;51.7667;
Hauptwil;4023691-2;;9.2525;47481;
Hedwigsburg;7167979;;10.5833;52.1000;
Heide;;4023987-1;+009.098800;+054.195790;
Heidelberg;7005177;4023996-2;8.7;49.4167;
Heilbronn;7012495;;9.2333;49.1333;
Heilsbronn;;;;;
Heinrichs;;4742210-5;+010.655490;+050.600119;
Helmstedt;7005247;4024344-8;11.0167;52.2333;
Herborn;1039554;4024455-6;8.3167;50.6833;
Herford;;4024481-7;+008.673429;+052.114570;
Herk-de-Stad;;7676707-3;+005.166360;+050.940130;
Hermannstadt;7004269;;24.15;45.7667;
Herrenberg;;4024574-3;+008.866479;+048.595230;
Herrenhausen;7172344;;9.6833; 52.3833;
Hersbruck;;4024603-6;+011.431509;+049.510829;
Herzogenaurach;;4024691-7;+010.885650;+049.567979;
Herzogenbusch;7006837;;5.3167;51.6833;
Hessisch Oldendorf;;4095179-0;+009.249129;+052.172690;
Hildburghausen;1036943;4089228-1;10.75;50.4167;
Hilden;;4024876-8;+006.930930;+051.168179;
Hildesheim;7005248;4024881-1;9.9667;52.15;
Hilpoltstein;;4024918-9;+011.190599;+049.190469;
Hindenburg (Altmark);;1124181199;+011.928888;+052.754444;
Hirschberg;1049105;4025049-0;+015.728888;+050.899722;
Hof;7012508;;11.9333;50.3167;
Hofgeismar;7005297;;9.3667;51.4833;
Hohenems;1025669;;9.7167;47.3833;
Holzminden;;4025727-7;+009.445499;+051.827979;
Hoorn;7007056;;5.05;52.6333;
Hornbach;1039686;;7.3833;49.1833;
Horní Slavkov;;4273968-8;+012.807579;+050.138629;
Huesca;7007785;;-.4167;42.1333;
Husum;7012515;4026249-2;9.0667;54.4833;
Höchst;4012613;;8559;50.1;
Höchstädt an der Donau;1039390;4025322-3;+010.568055;+048.611111;
Höxter;;4025451-3;+009.381550;+051.775010;
Ilfeld;1036989;;10.8;51.5833;
Ilmenau;;4026566-3;+010.918580;+050.683219;
Impruneta;7006144;;11.25;43.7;
Ingelfingen;;4095959-4;+009.653029;+049.300280;
Ingelheim am Rhein;;4026954-1;+008.058611;+049.970555;
Ingolstadt;7017035;4026991-7;11.45;48.7667;
Innsbruck;7003249;;11.4;47.2667;
Isny;7006097;;10.0333;47.7;
Isny;7006097;;10.0333;47.7;
Istanbul;7002473;;28.95;41.0333;
Izmir;;4096359-7;+027.138380;+038.412730;
İzmit;;4109182-6;+029.916940;+040.766939;
Jena;;4028557-1;+011.589900;+050.928780;
Jena;7005973;;11.5833;50.9333;
Jerusalem;;4028586-8;+035.216329;+031.769040;
Jever;;4028611-3;+007.898055;+053.573611;
Jöhstadt;;4096530-2;+013.094599;+050.512290;
Jülich;;4028835-3;+006.363950;+050.922699;
Kairo-al-Fustat;;4225633-1;+031.239270;+030.007370;
Kairuan;;4029239-3;+010.096330;+035.678100;
Kaisheim;7012523;;10.8;48.7667;
Kalkhorst;1037035;;11.0667;53.9667;
Kamen;;4029404-3;+007.663800;+051.592309;
Kamenz;;4029407-9;+014.093611;+051.267777;
Kampen;7006948;;5.9167;52.55;
Karlovy Vary;7011521;4029705-6;12.8667;50.2167;
Karlsbad;7011521;4029705-6;12.8667;50.2167;
Karlsburg;7153637;; 53.9667; 53.9667;
Karlsruhe;7004424;4029713-5;8.4;49.05;
Karlstadt;7012525;4029720-2;+009.772389;+049.960340;
Karthago;;4029802-4;+010.331609;+036.861080;
Kaschau;7011529;;21.25;48.7333;
Kassel;;4029869-3;+009.500000;+051.316666;
Kaufbeuren;;4030060-2;+010.621919;+047.882379;
Kaysersberg;;4235954-5;+007.263849;+048.138030;
Kellinghusen;;4030200-3;+009.719590;+053.952019;
Kemberg;;7732047-5;+012.632222;+051.771944;
Kempen (Kreis Viersen);;4030225-8;+006.418333;+051.364166;
Kempten;7012530;;10.3167;47.7333;
Kiel;7004457;4030481-4;10.1333;54.3333;
Kirchhain;;4030779-7;+008.928060;+050.827199;
Kitzingen;;4030899-6;+010.150719;+049.739730;
Kjósarsýsla;7006269;;-21.85;64.1667;
Klagenfurt;7003084;;14.3333;46.6333;
Kleve;7012313;;6.1833;51.7833;
Klosterneuburg;7003187;;16.3333;48.3167;
Knittlingen;;4031307-4;+008.756059;+049.024869;
Koblenz;7004448;;7.6;50.35;
Kolberg;7007688;;15.5833;54.1833;
Konstantinopel;;4073697-0;+028.949444;+041.013611;
Konstanz;7005174;;9.1667;47.6667;
Kopenhagen;7003474;4032399-7;12.5667;55.7167;
Korbach;;4032450-3;+008.872999;+051.275610;
Kostrzyn;7007723;;14.6667;52.5833;
Kołobrzeg;7007688;;15.5833;54.1833;
Krakau;7007652;;19.9167;50.05;
Krassolzheim;7150115;;10.3500;49.6000;
Krempe;;4033041-2;+009.488300;+053.836939;
Krems;7003173;;15.6;48.4167;
Kremsmünster;7003302;;14.1333;48.0833;
Kreuznach;7012371;;7.8667;49.85;
Kronach;;4033262-7;+011.333055;+050.239444;
Kronstadt;7004272;;25.5833;45.65;
Krummhörn-Greetsiel;;4093928-5;+007.094450;+053.501620;
Kulmbach;1039952;;11.4667;50.1;
Kuttenberg;7011655;;15.25;49.95;
Köln;7004446;4031483-2;6.95;50.9333;
Köndringen;;4457791-6;+007.806129;+048.139400;
Königgrätz;7012051;;15.8333;50.2167;
Königsberg;7013050;4031541-1;20.5;54.6667;
Königsberg i. Bay.;7012518;4031535-6;+010.567610;+050.080800;
Königsberg-Löbenicht;7013050;;20.5;54.6667;
Köslin;;4031607-5;+016.172219;+054.194380;
Köstritz;1036390;;12;50.9167;
Köthen;7012832;;11.9833;51.7667;
Køge;;4420429-2;+012.182140;+055.458019;
Küstrin;7007723;;14.6667;52.5833;
L'Aquila;;4099061-8;+013.399444;+042.350555;
La Haye en Touraine;;1192311302;+000.700000;+046.966666;
La Rochelle;7009264;;-1.1667;46.1667;
Labin;;4400628-7;+014.119719;+045.094999;
Ladenburg;4006030;;8.6;49.4667;
Laer;;4444067-4;+007.357750;+052.055549;
Laibach;7012986;;14.5;46.0667;
Landsberg am Lech;7012559;4034337-6;+010.882777;+048.048055;
Landshut;7004414;4034367-4;12.1667;48.5167;
Langenargen;;4034500-2;+009.541629;+047.598579;
Langensalza;1036393;;10.65;51.1;
Langwedel;;4439356-8;+009.185420;+052.978639;
Laon;;4111215-5;+003.616670;+049.566670;
Lauban;;4099081-3;+015.287679;+051.120139;
Lauenburg an der Elbe;7013016;;10.55;53.3833;
Laufenburg;7014138;;8.0667;47.5833;
Lauingen;7012568;4034738-2;10.4333;48566;
Lausanne;;4034750-3;+006.632777;+046.515833;
Le Grand-Quevilly;1033867;;1.05;49.4333;
Lechhausen;7138290;;10.9333;48.3833;
Leeuwarden;7007006;4074085-7;5.8;53.2;
Leeuwarden;7007006;;5.8;53.2;
Legnica;7007726;;16.1667;51.2;
Leiden;7006809;4074118-7;4.5;52.1667;
Leipzig;7012329;4035206-7;12.4167;51.3333;
Leisnig;;4111252-0;+012.927899;+051.157440;
Leitomischl;1027342;;16.3;49.9;
Lemgo;7012571;4035306-0;8.9;52.0333;
Lennep;;4074150-3;+007.259999;+051.192489;
Lenzen (Elbe);;4382592-8;+011.474529;+053.091760;
Leszno;1049207;;16.5833;51.85;
Leubsdorf (Landkreis Mittelsachsen);;4605273-2;+013.166669;+050.799999;
Leucate;;4571154-9;+003.029440;+042.910559;
Leutenberg;1037197;;11.45;50.55;
Leutkirch im Allgäu;;4035503-2;+010.020277;+047.826666;
Leutschau;7011691;;20.5833;49.0167;
Lich;1040112;;8.8333;50.5167;
Liebengrün;7138157;;;;
Liegnitz;;4035683-8;+016.161899;+051.210059;
Lille;;4114418-1;+003.058580;+050.632970;
Lindau;;4074242-8;+009.684166;+047.546111;
Linz;;4074255-6;+014.286110;+048.306390;
Lippstadt;7012582;4035900-1;8.3167;51.6667;
Lissabon;7010978;4035919-0;-9.1333;38.7333;
Liverpool;7010597;;-3;53.4167;
Liège;7007945;;5.5833;50.6333;
Ljubljana;7012986;4073953-3;14.5;46.0667;
Lobenstein;1037217;;11.65;50.45;
Lodi;7006011;;9.5;45.3167;
London;7011781;4074335-4;-.1667;51.5;
Londonderry;7012110;;-7.3167;55;
Loosduinen;;4497327-5;+004.234689;+052.050730;
Lowicz;7007581;;19.9333;52.1167;
Lubań;1049215;;15.2833;51.1167;
Lublin;7007732;;22.5167;51.3;
Lucca;;4074354-8;+010.505850;+043.843569;
Ludwigsburg;7012585;;9.1833;48.9;
Lund;7009837;;13.1667;55.7;
Luxemburg;7006254;;6.1333;49.6167;
Luzern;7007280;;8.2833;47.05;
Lyon;7008772;4036770-8;4.8333;45.7667;
Löcknitz;1037135;;14.2167;53.4667;
Löwen;7007949;4074300-7;4.7;50.8833;
Löwenburg JU;8705364;;7.2906;47.4076;
Lübeck;7012327;4036483-5;10.6667;53.8667;
Lüneburg;7004436;4036512-8;10.4;53.25;
Lünen;;4036521-9;+007.528719;+051.616340;
Lüttich;;4074361-5;+005.567490;+050.633729;
Maastricht;7006862;;5.7;50.85;
Macerata;7004018;;13.45;43.3;
Madrid;;4036862-2;-003.702560;+040.416499;
Madrid;7010413;;-3.7167;40.4167;
Magdeburg;7004456;4036934-1;11.6167;52.1333;
Mailand;;4037100-1;+009.189510;+045.464269;
Mainz;7004449;4037124-4;8.2667;50;
Malbork;7007740;;19.05;54.0333;
Malmö;;4114951-8;+013.300000;+055.605870;
Mannheim;7005179;;8.4667;49.5;
Mansfeld;;4037392-7;+011.452222;+051.592222;
Mantua;;4114978-6;+010.797840;+045.160310;
Marburg;7012330;4037446-4;8.7667;50.8167;
Mariastein, Solothurn;8703802;; 7.5167;47.4667;
Marienwerder;7007660;;18.6833;54.3667;
Markgrafschaft Baden-Durlach;2087942;;-76.2167;40.2167;
Massa Marittima;7006080;4264257-7;+010.892830;+043.049030;
Mecheln;7008736;4074654-9;4.4833;51.0333;
Meersburg;7012597;;9.2833;47.7;
Meinhard-Grebendorf;;7594601-4;+010.066219;+051.206000;
Meiningen;7012843;4038453-6;10.4167;50.55;
Meisenheim;1040297;;7.6667;49.7;
Meißen;;4038474-3;+013.473611;+051.161388;
Melk;7003193;;15.35;48.2333;
Memmingen;;4038586-3;+010.185269;+047.983719;
Mergental;7005181;;9.7667;49.5;Fraglich, vgl. VD17 1:019713S
Mergentheim;7005181;;9.7667;49.5;
Merseburg;7012845;;12;51.3667;
Meuselwitz;;4263806-9;+012.299350;+051.043160;
Michaelstein;7130041;4364611-6;;;
Middelburg;4007173;4115142-2;3.4167;51.25;
Milan;7005903;;9.2;45.4667;
Milbitz b. Rottenbach;;1063730678;+011.138055;+050.694166;
Minden;7005099;;8.9;52.3;
Mirandola;;4364709-1;+011.066200;+044.886769;
Mitau;7006473;;23.6667;56.65;
Modena;;4115170-7;+010.925390;+044.647829;
Moers;;4039916-3;+006.632600;+051.453420;
Mohrungen;;4101115-6;+019.926020;+053.917110;
Mollis;;4527550-6;9.07242;47.08878;
Molsheim;7009344;;7.5;48.55;
Monschau;;4040116-9;+006.240009;+050.554619;
Montargis;;4231911-0;+002.750000;+048.000000;
Montbéliard;7009347;;6.8;47.5167;
Montepulciano;;4115211-6;+011.786839;+043.101739;
Montpellier;7009369;;3.8833;43.6;
Montreuil;;4284726-6;1.76348;50.46374;
Moskau;7012974;;37.7;55.75;
Most;7011712;;13.65;50.5167;
Motta di Livenza;;4191783-2;+012.602779;+045.778060;
Motzlar;;1184521565;+009.965249;+050.679330;
Mulhouse;7012333;;7.35;47.75;
Möckern;;4338369-5;+011.951944;+052.140833;
Mönchberg;7135122;;;;
Mühlhausen;7005939;4040466-3;10.4667;51.2167;
Mülhausen;;4040474-2;+007.333330;+047.750000;
Mülheim am Rhein;7134539;; 7.0167;50.9667;
Münchberg;7135122;;;;
München;7134068;4127793-4;13.4667;48.7000;
Münster;7004445;4040608-8;7.6333;51.9667;
Nancy;7008412;4041201-5;6.2;48.7;
Nantes;7008482;4041204-0;-1.5833;47.2333;
Naples;7004474;;14.25;40.8333;
Naugard;;4102390-0;+015.116300;+053.674370;
Naumburg (Saale);;4041445-0;+011.809722;+051.149722;
Neapel;;4041476-0;+014.250000;+040.833329;
Neiße;1049304;;17.3333;50.5;
Nellingen;;4355634-6;+009.790277;+048.541944;
Neuburg;;4041719-0;+011.186944;+048.731944;
Neudamm;1049004;;14.7;52.7167;Tham in der Neumark, Debno
Neuenstadt am Kocher;1040446;;9.3167;49.2333;
Neugrätz;1049615;;16.25;51.8167;bei Wschowa
Neuhaldensleben;;4117825-7;+011.409722;+052.289166;
Neuhaus;1041113;;8.7167;51.7333;Schloss Neuhaus
Neuhausen (Worms);;4601198-5;+008.346669;+049.645839;
Neukölln;7122330;;13.4333;52.4667;
Neumarkt i.d. OPf.;;4041837-6;+011.462777;+049.280277;
Neuruppin;7012848;;12.8167;52.9333;
Neustadt an der Aisch;1040479;;10.6333;49.5833;
Neustadt an der Orla;;4191795-9;+011.746111;+050.736388;
Neustadt an der Saale;7004416;;10.2;50.3333;
Neustadt an der Weinstraße;7004417;;8.15;49.35;
Newcastle upon Tyne;7012026;;-1.5833;54.9833;
Nidda;;4042163-6;+009.006380;+050.413299;
Niedermarsberg;1040505;;8.85;51.45;
Niedersachswerfen;;4439815-3;+010.766669;+051.566670;
Nienburg / Weser;;4042268-9;+009.220833;+052.646111;
Nijmegen;7031832;;5.8667;51.8333;
Norden;;4042513-7;+007.206389;+053.595520;
Nordhausen;7012851;4042532-0;10.8;51.5167;
Northeim;;4042636-1;+009.999980;+051.706620;
Norwich;7012005;;1.3;52.6333;
Noyon;;4042721-3;+003.000000;+049.583329;
Nîmes;;4117890-7;+004.349999;+043.833329;
Nördlingen;7012334;4042434-0;10.5167;48.85;
Nürnberg;7004334;4042742-0;11.0667;49.45;
Nürnberg-Wöhrd;;4117951-1;11.09594;49.45423;
Oberglogau;1049040;;17.8333;50.35;
Oberlungwitz;1037409;;12.7167;50.7833;
Obermarchtal;7012622;;9.5833;48.2333;
Obermarsberg;4008094;;8.85;51.4667;
Oberursel;7012626;;8.5833;50.2;
Oedenburg;7010514;;16.5833;47.6667;Sopron
Oels;1049316;;17.35;51.2;
Oettingen in Bayern;7012633;4116730-2;10.6333;48.95;
Offenbach;7012634;;8.7667;50.1;
Ohlau;;4384267-7;+017.292600;+050.946599;
Ohrdruf;;4211782-3;+010.734166;+050.828888;
Oldenburg;7004439;4043457-6;8;53;
Oldenswort;;4424571-3;+008.939959;+054.372430;
Oleśnica;1049316;;17.35;51.2;
Oliva;;;;;
Olmütz;;4075643-9;+017.251750;+049.595520;
Oppenheim;7012639;;8.3667;49.8667;
Orgelet;;4370925-4;+005.610490;+046.520960;
Orléans;7008337;;1.9;47.9;
Ornans;;4435970-6;+006.143060;+047.107489;
Oschatz;1037435;;13.1167;51.3;
Oslo;7009573;;10.75;59.9333;
Osnabrück;7005252;4043974-4;8.05;52.2833;
Osterode am Harz;;4044041-2;+010.250833;+051.726666;
Ottensen;;5030792-7;+009.916666;+053.549722;
Oudewater;;4354469-1;+004.868059;+052.024999;
Oxford;7011931;4044234-2;-1.25;51.7667;
Paderborn;;4044283-4;+008.754390;+051.719050;
Padua;7003085;4044295-0;11.8833;45.4167;
Palma de Mallorca;;4115833-7;+002.650240;+039.569389;
Parchim;1037464;;11.85;53.4333;
Paris;7008038;4044660-8;2.3333;48.8667;
Passau;7004407;;13.4667;48.5833;
Pavia;;4044970-1;+009.161450;+045.184460;
Pegau;7012856;;12.25;51.1667;
Pella (Nordgriechenland);;4045057-0;+022.519169;+040.759999;
Penig;;4285495-7;+012.704219;+050.933360;
Perleberg;;4269332-9;+011.857390;+053.075830;
Pescina;;4301157-3;+013.651160;+042.023510;
Pesing;7011722;;17.25;48.2833;Pezinok
Peuerbach;;4245569-8;+013.772050;+048.345300;
Pfaffenhofen;7121193;; 11.5347;48.5814;Pfaffenhofen an der Ilm
Pferdingsleben;;4291750-5;+010.816670;+050.966670;
Pforzheim;7012653;4045637-7;8.7;48.8833;
Piacenza;;4046001-0;+009.699370;+045.046759;
Piadena;;4247143-6;+010.371010;+045.128590;
Pienza;7006322;;11.6833;43.0667;
Pilsen;;4076145-9;+013.377589;+049.747469;
Pilsum;1040740;;7.0667;53.4833;
Piombino;;4383506-5;+010.522119;+042.934820;
Pirna;;4046147-6;+013.937020;+050.958429;
Pisa;;4046151-8;+010.396589;+043.715530;
Pitcairn Islands;7005269;;-130.0833;-25.0667;
Pitschen;7121379;;13.5833;51.8667;
Plauen;;4046334-5;+012.137777;+050.497222;
Plänitz;;7591300-8;+012.406140;+052.877830;
Plön;1040743;;10.4333;54.1667;
Porto;7010979;;-8.5833;41.1667;
Portoferraio;7006196;;10.3333;42.8167;
Poschiavo;1064304;;10.0667;46.3167;
Posen;7007756;;16.8833;52.4167;
Potsdam;7004463;4046948-7;13.0667;52.4;
Pottendorf;1025956;;16.3833;47.9167;
Prag;7006464;4076310-9;14.4333;50.1;
Prato;7006161;;11.1;43.8833;
Preßburg;7006465;;17.1667;48.1667;
Priorau;;1063686539;+012.282777;+051.732500;
Pruntrut;7007445;;7.1;47.4167;
Pyrmont;7005480;;9.2667;51.9833;
Quedlinburg;7012857;4048035-5;11.15;51.8;
Radeburg;1037550;;13.7333;51.2167;
Ragnitz;;4997378-2;+015.592779;+046.836669;
Raków;;4460386-1;+021.045000;+050.674166;
Rappoltsweiler;;4420082-1;+007.319379;+048.195099;
Rathenow;;4104905-6;+012.336959;+052.606589;
Ratzeburg;7012665;;10.7667;53.7;
Ravensburg;7005184;;9.6167;47.7833;
Rawicz;1049413;;16.85;51.6333;
Recklinghausen;;4048864-0;+007.197222;+051.613611;
Rees;1040842;;6.4;51.7667;
Regensburg;7013496;4048989-9;12.1;49.0167;
Reichenbach im Vogtland;;4278871-7;+012.303333;+050.622777;
Remlingen;7111296; 4502271-9;10.6667;52.1167;
Rendsburg;;4049461-5;+009.663130;+054.306629;
Rethimnon;;4274296-1;+024.471389;+035.364719;
Reutlingen;7012674;;9.2167;48.5;
Reval;7006629;;24728;59433;
Rheinberg;;4049744-6;+006.595240;+051.546489;
Riga;;4050042-1;+024.105889;+056.945999;
Rijssel;;7683719-1;+005.161059;+051.047989;
Rinteln;1040922;4050107-3;9.0667;52.1833;
Riva del Garda;;4192166-5;10.84117;45.88577;
Rochlitz;;4050226-0;+012.797539;+051.050069;
Roermond;7006856;;6;51.2;
Rom;7000874;4050471-2;12.5;41.8833;
Rorschach;7007453;;9.5;47.4667;
Rosenheim;;4050554-6;+012.122469;+047.856369;
Rostock;7004717;4050610-1;12.15;54.1;
Rothenberg;;;;;
Rothenburg ob der Tauber;7005188;;10.2167;49.3833;
Rotterdam;7006792;4050739-7;4.4833;51.9167;
Rottleben;;1112611835;+011.050000;+051.366669;
Rottweil;7012685;;8.6167;48.1667;
Rouen;7008929;4050751-8;1.0833;49.4333;
Roßwein;;4305326-9;+013.183080;+051.065890;
Rudolstadt;7012862;4105066-6;11.3333;50.7167;
Rufach;;4105093-9;+007.300160;+047.957859;
Ruine Liebeneck;7138158;;11.366667;49.033333;
Runkel;;4051003-7;+008.154569;+050.405740;
Römhild;7012861;;10.55;50.3833;
Rügenwalde;;4105080-0;+016.410699;+054.420949;
Saalfeld;7012864;4051087-6;11.3667;50.65;
Sagan;;4234600-9;+015.314859;+051.617589;
Saint Petersburg;7010273;;30.25;59.8833;
Saint-Martin-du-Frêne;;1126056723;+005.552500;+046.138888;
Saldus;;1048044599;+022.488055;+056.663611;
Salerno;;4051362-2;+014.765990;+040.677970;
Salzburg;7003256;4076982-3;13.05;47.8;
Salzderhelden;;4445440-5;+009.916940;+051.798430;
Salzwedel;;4105266-3;+011.152499;+052.854349;
Sandomierz;;4378952-3;+021.748979;+050.682650;
Sangerhausen;;4051574-6;+011.295329;+051.472209;
Sankt Gallen;;4051594-1;+009.374722;+047.423888;
Sankt Hubert;1041029;;6.45;51.3833;
Saragossa;7008813;;-.9;41.65;
Saumur;;4051828-0;-000.083330;+047.266669;
Schaffhausen;;4051993-4;+008.634722;+047.697222;
Schiedam;7006800;;4.4167;51.9167;
Schkeuditz;;4364737-6;+012.221410;+051.396779;
Schlanstedt;;7641182-5;+011.030960;+052.012250;
Schleid-Motzlar;;7708544-9;+009.965249;+050.679330;
Schleiden;;4315285-5;+006.476666;+050.528888;
Schleiz;1037680;;11.8167;50.5667;
Schleswig;7012700;4052689-6;9.55;54.5167;
Schlettstadt;;4052703-7;+007.450000;+048.266669;
Schleusingen;1037684;4052708-6;10.7667;50.5167;
Schlichtingsheim;1049522;;16.2667;51.7167;
Schmalkalden;;4052793-1;+010.443860;+050.721359;
Schmiedeberg;;;;;
Schneeberg;;4052988-5;+012.641389;+050.594650;
Schorndorf;;4053210-0;+009.526944;+048.805277;
Schwabach;7012909;4053665-8;11.0333;49.3333;
Schwabegg;7093743;; 10.6833; 48.1833;
Schweidnitz;7007556;;16.4833;50.25;
Schweinfurt;;4053863-1;+010.221750;+050.049370;
Schwelm;;4053923-4;+007.293879;+051.286349;
Schwerin;;4053950-7;+011.413159;+053.629370;
Schwyz;7007465;;8.65;47.0333;
Schwäbisch Gmünd;7012707;;9.7833;48.8;
Schwäbisch Hall;7012708;4053684-1;9.7333;49.1;
Schöningen (Landkreis Helmstedt);;4106620-0;+010.967449;+052.138019;
Sedan;7009674;4054074-1;4.95;49.7;
Seebergen (Drei Gleichen);;5268082-4;+010.799166;+050.920833;
Semur-en-Auxois;;4118583-3;+004.333330;+047.483330;
Sens;7008255;;3.3;48.2;
Sevilla;;4054671-8;-005.976130;+037.382410;
Shkodër;;4325862-1;+019.512579;+042.068280;
Siegen;7012712;4054883-1;8.0333;50.8667;
Siena;7011179;4054903-3;11.3167;43.3167;
Soest;;4055374-7;+008.106189;+051.575580;
Solothurn;7007295;;7.5333;47.2167;
Sommerhausen;7099322;;10.0333;49.7000;
Sondershausen;1037748;4055548-3;10.8667;51.3667;
Sora;;4447008-3;+013.614100;+041.715719;
Sorau;;64338-5;+015.137222;+051.641944;
Sorø;7003597;;11.5667;55.4333;
Spandau;7097050;4069319-3;+013.199210;+052.551099;
Spangenberg;;4130043-9;+009.662699;+051.116439;
Sparenberg;7097006;;8.3667; 47.7833;
Speyer;7012341;4056179-3;8.4333;49.3167;
Squillace;;4385748-6;+016.512200;+038.779479;
St. Gallen;1026021;;14.6167;47.6833;
Stade;1041281;;9.4667;53.6;
Stadtamhof;4010711;;12.1167;49.0333;
Stadthagen;7005478;;9.2167;52.3167;
Stadtlohn;;4056746-1;+006.919179;+051.993989;
Stadtsteinach;;4105539-1;+011.503333;+050.164166;
Stagira;;4823144-7;23.75159;40.53042;
Stargard in Pommern;7007797;5057076-6;18.5;53.9667;
Steinau an der Oder;1048843;;16.4167;51.4333;
Steinfurt;1041314;;7.35;52.15;
Steinheim (Kreis Höxter);;4057182-8;+009.091359;+051.870660;
Stendal;7012875;4057260-2;11.85;52.6;
Stettin;;4057392-8;+014.552777;+053.428888;
Steyr;7003303;;14.4167;48.0667;
Stockholm;7009861;4057648-6;18.0833;59.3333;
Stolberg;;4118832-9;+010.955555;+051.574166;
Stolp;7067268;;12.9000;52.4833;
Stralsund;7004718;4057860-4;13.1;54.3;
Straubing;7004413;;12.5833;48.8833;
Strausberg;;4245400-1;+013.887409;+052.578589;
Straßburg;7012346;4057878-1;7.75;48.5833;
Striegnitz;;7679560-3;+013.283670;+051.224580;
Strängnäs;7009862;;17.0333;59.3833;
Stuttgart;7004425;4058282-6;9.2;48.7833;
Sulechów;1049505;;15.6167;52.1;
Sulz am Neckar;;4374010-8;+008.633055;+048.362222;
Sulzbach;7072465;;9.159167;49.910833;
Sulzbach-Rosenberg;7004409;4078064-8;11.7667;49.5;
Szczecin;7007809;;14.5333;53.4167;
Szegedin;7010516;;20.15;46.25;
Świdnica;;4053841-2;+016.488589;+050.843780;
Tagliacozzo;;4301158-5;+013.254690;+042.069330;
Talcy, Château de;1100356;;1.45;47.7667;
Tallinn;7006629;;24728;59433;
Tapia de Casariego;7297207;;-6.95;43.566667;
Tarragona;7008715;;1.25;41.1167;
Tecklenburg;1041392;;7.8333;52.2167;
Tegernsee;7004693;;11.7667;47.7;
Thann;7009500;;7.0833;47.8167;
Themar;;4365202-5;+010.615360;+050.504649;
Thorn;;4059950-4;+018.598140;+053.013750;
Thurnau;1041418;;11.4;50.0167;
Tiel;7006875;;5.4333;51.8833;
Toledo;;4078343-1;-004.022630;+039.858100;
Tolentino;;4336897-9;+013.290079;+043.212550;
Torgau;;4060446-9;+012.996169;+051.560160;
Tortona;7005603;;8.8667;44.9;
Toruń;7007831;4059950-4;18.5833;53.0167;
Toul;7009506;;5.9;48.6833;
Toulouse;;4060518-8;+001.443670;+043.604259;
Tournon-sur-Rhône;;4106548-7;+006.302439;+045.642049;
Treuenbrietzen;;4298959-0;+012.872579;+052.097540;
Trient;7005128;;11133;46066;
Trier;7004447;;6.65;49.75;
Trnava;7011810;;17.5833;48.3833;
Troyes;7008350;;4.0833;48.3;
Trumpington;7024822;;.1167;52.1833;
Trévoux;7009510;;4.7667;45.95;
Tunbridge Wells;7011676;;.2667;51.1333;
Turin;7005688;4061245-4;7.6667;45.0667;
Tyrnau;7011810;;17.5833;48.3833;
Töss;;4355064-2;8.70215;47.4789;
Tübingen;7004426;4061147-4;9.05;48.5333;
Udine;7005139;4117272-3;13.2333;46.0667;
Uelsen;7005313;4354804-0;10.5667;52.9667;
Uelzen;7005313;;10.5667;52.9667;
Ulm;7005187;4061529-7;10;48.4;
Uppsala;7009867;4078659-6;17.6333;59.9167;
Uranienborg;7009875;;12.6782824;55.9057932;
Urbino;;4119316-7;+012.636329;+043.726210;
Uri;7003761;;8.6667;46.8333;
Ursberg;;4117308-9;+010.445940;+048.264279;
Utrecht;7006926;4062222-8;5.1167;52.1;
Vaihingen an der Enz;;4062257-5;+008.960277;+048.935555;
Valdorf;1041520;;8.85;52.15;
Valencia;;4062284-8;-000.377222;+039.469722;
Venedig;7018159;4062501-1;12.3333;45.4333;
Verona;7003262;4063110-2;11;45.4333;
Vézelay;;4063430-9;3.74559;47.46572;
Vianen;7006907;;5.0833;52;
Vicenza;;4063445-0;+011.540900;+045.557290;
Vienne;7008589;;4.9;45.5333;
Villingen im Schwarzwald;;4063544-2;+008.456666;+048.059722;
Vilnius;7006521;;25.3167;54.6833;
Visingsborg;1009653;;14.33750;58.04777;
Viterbo;;4119454-8;+012.108560;+042.417830;
Vlissingen;7006750;;3.5833;51.45;
Vlotho;1041563;;8.85;52.1667;
Waiblingen;;4064328-1;+009.316409;+048.832410;
Walcourt;;4747460-9;+004.437960;+050.254010;
Waldenburg (Landkreis Zwickau);;4439683-1;+012.599199;+050.876530;
Walkersbrunn;;4118968-1;+011.209139;+049.653900;
Waltershausen;;4064494-7;+010.557909;+050.898269;
Wandsbek;7005957;;10.0667;53.5667;
Wangen im Allgäu;;4064555-1;+009.832222;+047.689444;
Warburg;7012758;;9.1667;51.5;
Warendorf;;4064587-3;+007.987560;+051.951090;
Warschau;;4079048-4;+021.011780;+052.229770;
Warstein;7012759;;8.3667;51.45;
Wedel;1041687;;9.7167;53.5833;
Weida;1037943;4119012-9;+012.060280;+050.774490;
Weiden;7086205;;11.233333;50.033333;
Weil der Stadt;;4065086-8;+008.871760;+048.749530;
Weimar;7012886;4065105-8;11.3167;50.9833;
Weingarten;;4065156-3;+009.638611;+047.810000;
Weinheim;1041717;;8.6833;49.5167;
Weinsberg;;4065180-0;+009.287620;+049.151279;
Weißenburg (Elsass);;4079134-8;+007.945555;+049.036944;
Weißenfels;7085364;;;;
Weißenstadt;;4065251-8;+011.888489;+050.102170;
Wemding;;4065484-9;+010.724520;+048.874609;
Wermelskirchen-Dabringhausen;;4541390-3;+007.190000;+051.090519;
Wernigerode;7012889;;10.7833;51.8333;
Wertheim;;4065663-9;+009.508520;+049.759000;
Wesel;7005168;4065697-4;6.6167;51.6667;
Wettingen;;;;;
Wetzlar;7012774;;8.5;50.55;
Wien;7003321;4066009-6;16.3667;48.2167;
Wiener Neustadt;7003181;4066023-0;16.25;47.8167;
Wiesendangen;8709666;;8.7900;47.5222;
Wildberg;1041824;;8.75;48.6333;
Wildhaus;;4119117-1;+009.353888;+047.205833;
Wildschütz;7084272;;12.0667;51.1167;
Wilhermsdorf;7083578;;10.716667;49.483333;
Windsheim;7012382;;10.45;49.5;
Winnenden;;4066313-9;+009.398189;+048.875630;
Winterthur;;4066337-1;+008.723888;+047.505555;
Wismar;7004719;;11.4667;53.9;
Wittenberg;7078542;4066640-2;+012.649729;+051.866100;
Wittenberg-Kropstädt;1037122;4738788-9;+012.745499;+051.963070;
Wittmund;;4108467-6;+007.778389;+053.576740;
Wohlau;;4066727-3;+016.644290;+051.336559;
Wolfenbüttel;7005253;4066832-0;10.55;52.1667;
Wolgast;1038016;;13.7667;54.05;
Wollin (Landkreis Usedom-Wollin);;113224-6;+014.614444;+053.841944;
Worcester;;4119169-9;-002.220009;+052.189349;
Wormerveer;1048257;;4.7833;52.5;
Worms;7005108;;8.35;49.6333;
Wunsiedel;1041888;;12.0167;50.0333;
Würzburg;7004335;4067037-5;9.9333;49.8;
York;7011995;;-1.0833;53.9667;
Zagań;1048861;;15.3333;51.6167;
Zamora;;4216370-5;-005.744559;+041.506329;
Zandvoort;1048265;;4.5167;52.3667;
Zaragoza;;4079463-5;-000.877340;+041.656059;
Zasław;;7532399-0;+022.257419;+049.525329;
Zeitz;7012351;4067525-7;12.15;51.05;
Zellerfeld;7005931;;10.3333;51.8;
Zerbst;7012892;;12.0833;51.9667;
Zierikzee;7030107;;3916;51.65;
Zittau;7017177;;14.75;50.9;
Zschopau;;4109065-2;+013.076909;+050.748179;
Zug;7007544;;8.5167;47.1667;
Zutphen;;4119265-5;+006.201389;+052.138330;
Zweibrücken;7012352;;7.3667;49.25;
Zwettl;7003169;;15.1667;48.6167;
Zwickau;7012354;4068262-6;12.5;50.7333;
Zwolle;7007077;;6.1;52.5167;
Züllichau;;4119257-6;+015.625130;+052.083620;
Zürich;7007302;4068038-1;8.55;47.3833;
Öhringen;7005183;;9.5;49.2;
Überlingen;7012359;;9.1667;47.7667;
Šibenik;;4387004-1;+015.905829;+043.727220;
Żary;;4333557-3;+015.137222;+051.641944;
